{"type": "FeatureCollection", "features": [ {"type": "Feature", "properties": {"norad_id": 38552, "name": "METEOSAT-10 (MSG-3)", "group": "weather", "lat": 3.7841160695209206, "lon": 177.19731566458685, "alt_km": 35786.087086209925, "timestamp": "2025-12-03T06:58:42.883913+00:00", "meta": {"OBJECT_NAME": "METEOSAT-10 (MSG-3)", "OBJECT_ID": "2012-035B", "EPOCH": "2025-12-02T01:48:01.931904", "MEAN_MOTION": 1.002722, "ECCENTRICITY": 6.876e-05, "INCLINATION": 4.2018, "RA_OF_ASC_NODE": 61.7375, "ARG_OF_PERICENTER": 218.9493, "MEAN_ANOMALY": 177.6056, "EPHEMERIS_TYPE": 0, "CLASSIFICATION_TYPE": "U", "NORAD_CAT_ID": 38552, "ELEMENT_SET_NO": 999, "REV_AT_EPOCH": 4888, "BSTAR": 0, "MEAN_MOTION_DOT": 1.3e-07, "MEAN_MOTION_DDOT": 0}, "tle": {"line1": "1 38552U 12035B   25336.07502236  .00000013  00000+0  00000+0 0  9990", "line2": "2 38552   4.2018  61.7375 0000687 218.9493 177.6056  1.00272200 48880"}}, "geometry": {"type": "Point", "coordinates": [177.19731566458685, 3.7841160695209206]}}, {"type": "Feature", "properties": {"norad_id": 38771, "name": "METOP-B", "group": "weather", "lat": 4.0057563749704395, "lon": 26.796074010407654, "alt_km": 824.6714916821784, "timestamp": "2025-12-03T06:58:42.883925+00:00", "meta": {"OBJECT_NAME": "METOP-B", "OBJECT_ID": "2012-049A", "EPOCH": "2025-12-02T19:08:00.830112", "MEAN_MOTION": 14.21402274, "ECCENTRICITY": 0.0002463, "INCLINATION": 98.6814, "RA_OF_ASC_NODE": 26.9239, "ARG_OF_PERICENTER": 166.7431, "MEAN_ANOMALY": 193.3811, "EPHEMERIS_TYPE": 0, "CLASSIFICATION_TYPE": "U", "NORAD_CAT_ID": 38771, "ELEMENT_SET_NO": 999, "REV_AT_EPOCH": 68536, "BSTAR": 0.00011392, "MEAN_MOTION_DOT": 2.05e-06, "MEAN_MOTION_DDOT": 0}, "tle": {"line1": "1 38771U 12049A   25336.79723183  .00000205  00000+0  11392-3 0  9996", "line2": "2 38771  98.6814  26.9239 0002463 166.7431 193.3811 14.21402274685369"}}, "geometry": {"type": "Point", "coordinates": [26.796074010407654, 4.0057563749704395]}}, {"type": "Feature", "properties": {"norad_id": 39216, "name": "INSAT-3D", "group": "weather", "lat": -0.9446788117071427, "lon": -53.436405682956355, "alt_km": 35782.911957308665, "timestamp": "2025-12-03T06:58:42.883937+00:00", "meta": {"OBJECT_NAME": "INSAT-3D", "OBJECT_ID": "2013-038B", "EPOCH": "2025-12-02T15:59:05.607168", "MEAN_MOTION": 1.00274208, "ECCENTRICITY": 0.00017309, "INCLINATION": 1.4165, "RA_OF_ASC_NODE": 85.1091, "ARG_OF_PERICENTER": 152.9868, "MEAN_ANOMALY": 202.9548, "EPHEMERIS_TYPE": 0, "CLASSIFICATION_TYPE": "U", "NORAD_CAT_ID": 39216, "ELEMENT_SET_NO": 999, "REV_AT_EPOCH": 4510, "BSTAR": 0, "MEAN_MOTION_DOT": -3.19e-06, "MEAN_MOTION_DDOT": 0}, "tle": {"line1": "1 39216U 13038B   25336.66603712 -.00000319  00000+0  00000+0 0  9998", "line2": "2 39216   1.4165  85.1091 0001730 152.9868 202.9548  1.00274208 45108"}}, "geometry": {"type": "Point", "coordinates": [-53.436405682956355, -0.9446788117071427]}}, {"type": "Feature", "properties": {"norad_id": 39260, "name": "FENGYUN 3C", "group": "weather", "lat": 80.2961799232877, "lon": -105.25403767037508, "alt_km": 840.0892355888145, "timestamp": "2025-12-03T06:58:42.883948+00:00", "meta": {"OBJECT_NAME": "FENGYUN 3C", "OBJECT_ID": "2013-052A", "EPOCH": "2025-12-02T20:23:55.877856", "MEAN_MOTION": 14.15691286, "ECCENTRICITY": 0.0013803, "INCLINATION": 98.4753, "RA_OF_ASC_NODE": 315.0127, "ARG_OF_PERICENTER": 225.8198, "MEAN_ANOMALY": 134.1843, "EPHEMERIS_TYPE": 0, "CLASSIFICATION_TYPE": "U", "NORAD_CAT_ID": 39260, "ELEMENT_SET_NO": 999, "REV_AT_EPOCH": 63078, "BSTAR": 0.00010917, "MEAN_MOTION_DOT": 1.73e-06, "MEAN_MOTION_DDOT": 0}, "tle": {"line1": "1 39260U 13052A   25336.84995229  .00000173  00000+0  10917-3 0  9999", "line2": "2 39260  98.4753 315.0127 0013803 225.8198 134.1843 14.15691286630788"}}, "geometry": {"type": "Point", "coordinates": [-105.25403767037508, 80.2961799232877]}}, {"type": "Feature", "properties": {"norad_id": 40069, "name": "METEOR-M 2", "group": "weather", "lat": -52.65013419214665, "lon": 123.95231052934972, "alt_km": 824.2837757747984, "timestamp": "2025-12-03T06:58:42.883958+00:00", "meta": {"OBJECT_NAME": "METEOR-M 2", "OBJECT_ID": "2014-037A", "EPOCH": "2025-12-02T21:26:10.225824", "MEAN_MOTION": 14.21380338, "ECCENTRICITY": 0.0004697, "INCLINATION": 98.4892, "RA_OF_ASC_NODE": 314.8557, "ARG_OF_PERICENTER": 242.8517, "MEAN_ANOMALY": 117.2182, "EPHEMERIS_TYPE": 0, "CLASSIFICATION_TYPE": "U", "NORAD_CAT_ID": 40069, "ELEMENT_SET_NO": 999, "REV_AT_EPOCH": 59143, "BSTAR": 0.00012529, "MEAN_MOTION_DOT": 2.32e-06, "MEAN_MOTION_DDOT": 0}, "tle": {"line1": "1 40069U 14037A   25336.89317391  .00000232  00000+0  12529-3 0  9992", "line2": "2 40069  98.4892 314.8557 0004697 242.8517 117.2182 14.21380338591436"}}, "geometry": {"type": "Point", "coordinates": [123.95231052934972, -52.65013419214665]}}, {"type": "Feature", "properties": {"norad_id": 40267, "name": "HIMAWARI-8", "group": "weather", "lat": 0.0012538980234982316, "lon": -42.276591898229704, "alt_km": 35782.293132388826, "timestamp": "2025-12-03T06:58:42.883971+00:00", "meta": {"OBJECT_NAME": "HIMAWARI-8", "OBJECT_ID": "2014-060A", "EPOCH": "2025-12-02T19:38:24.690048", "MEAN_MOTION": 1.00270755, "ECCENTRICITY": 0.0001197, "INCLINATION": 0.036, "RA_OF_ASC_NODE": 140.7873, "ARG_OF_PERICENTER": 141.9762, "MEAN_ANOMALY": 224.4384, "EPHEMERIS_TYPE": 0, "CLASSIFICATION_TYPE": "U", "NORAD_CAT_ID": 40267, "ELEMENT_SET_NO": 999, "REV_AT_EPOCH": 4079, "BSTAR": 0, "MEAN_MOTION_DOT": -2.55e-06, "MEAN_MOTION_DDOT": 0}, "tle": {"line1": "1 40267U 14060A   25336.81834132 -.00000255  00000+0  00000+0 0  9990", "line2": "2 40267   0.0360 140.7873 0001197 141.9762 224.4384  1.00270755 40792"}}, "geometry": {"type": "Point", "coordinates": [-42.276591898229704, 0.0012538980234982316]}}, {"type": "Feature", "properties": {"norad_id": 40367, "name": "FENGYUN 2G", "group": "weather", "lat": -1.907722738968302, "lon": -83.31080465454632, "alt_km": 35774.6881361383, "timestamp": "2025-12-03T06:58:42.883983+00:00", "meta": {"OBJECT_NAME": "FENGYUN 2G", "OBJECT_ID": "2014-090A", "EPOCH": "2025-12-02T19:23:41.667360", "MEAN_MOTION": 1.00267744, "ECCENTRICITY": 0.0003067, "INCLINATION": 5.141, "RA_OF_ASC_NODE": 75.2124, "ARG_OF_PERICENTER": 193.3464, "MEAN_ANOMALY": 193.9973, "EPHEMERIS_TYPE": 0, "CLASSIFICATION_TYPE": "U", "NORAD_CAT_ID": 40367, "ELEMENT_SET_NO": 999, "REV_AT_EPOCH": 4003, "BSTAR": 0, "MEAN_MOTION_DOT": -2.84e-06, "MEAN_MOTION_DDOT": 0}, "tle": {"line1": "1 40367U 14090A   25336.80812115 -.00000284  00000+0  00000+0 0  9992", "line2": "2 40367   5.1410  75.2124 0003067 193.3464 193.9973  1.00267744 40039"}}, "geometry": {"type": "Point", "coordinates": [-83.31080465454632, -1.907722738968302]}}, {"type": "Feature", "properties": {"norad_id": 40732, "name": "METEOSAT-11 (MSG-4)", "group": "weather", "lat": 2.449707070658754, "lon": -173.46825634235648, "alt_km": 35783.34169755412, "timestamp": "2025-12-03T06:58:42.883994+00:00", "meta": {"OBJECT_NAME": "METEOSAT-11 (MSG-4)", "OBJECT_ID": "2015-034A", "EPOCH": "2025-12-02T17:15:16.468704", "MEAN_MOTION": 1.0027758, "ECCENTRICITY": 2.58e-05, "INCLINATION": 2.7105, "RA_OF_ASC_NODE": 72.0266, "ARG_OF_PERICENTER": 160.8786, "MEAN_ANOMALY": 107.1897, "EPHEMERIS_TYPE": 0, "CLASSIFICATION_TYPE": "U", "NORAD_CAT_ID": 40732, "ELEMENT_SET_NO": 999, "REV_AT_EPOCH": 524, "BSTAR": 0, "MEAN_MOTION_DOT": 8.3e-07, "MEAN_MOTION_DDOT": 0}, "tle": {"line1": "1 40732U 15034A   25336.71894061  .00000083  00000+0  00000+0 0  9993", "line2": "2 40732   2.7105  72.0266 0000258 160.8786 107.1897  1.00277580  5241"}}, "geometry": {"type": "Point", "coordinates": [-173.46825634235648, 2.449707070658754]}}, {"type": "Feature", "properties": {"norad_id": 41105, "name": "ELEKTRO-L 2", "group": "weather", "lat": 6.193825428870975, "lon": 162.47824288448132, "alt_km": 35790.72699525925, "timestamp": "2025-12-03T06:58:42.884007+00:00", "meta": {"OBJECT_NAME": "ELEKTRO-L 2", "OBJECT_ID": "2015-074A", "EPOCH": "2025-12-02T01:43:47.338752", "MEAN_MOTION": 1.00269907, "ECCENTRICITY": 0.00039368, "INCLINATION": 6.1965, "RA_OF_ASC_NODE": 72.9528, "ARG_OF_PERICENTER": 196.8313, "MEAN_ANOMALY": 172.831, "EPHEMERIS_TYPE": 0, "CLASSIFICATION_TYPE": "U", "NORAD_CAT_ID": 41105, "ELEMENT_SET_NO": 999, "REV_AT_EPOCH": 3653, "BSTAR": 0, "MEAN_MOTION_DOT": -9.8e-07, "MEAN_MOTION_DDOT": 0}, "tle": {"line1": "1 41105U 15074A   25336.07207568 -.00000098  00000+0  00000+0 0  9998", "line2": "2 41105   6.1965  72.9528 0003936 196.8313 172.8310  1.00269907 36538"}}, "geometry": {"type": "Point", "coordinates": [162.47824288448132, 6.193825428870975]}}, {"type": "Feature", "properties": {"norad_id": 41752, "name": "INSAT-3DR", "group": "weather", "lat": -0.01035022541988856, "lon": -108.98331483500277, "alt_km": 35728.48964163703, "timestamp": "2025-12-03T06:58:42.884019+00:00", "meta": {"OBJECT_NAME": "INSAT-3DR", "OBJECT_ID": "2016-054A", "EPOCH": "2025-12-02T20:18:05.563008", "MEAN_MOTION": 1.00269587, "ECCENTRICITY": 0.0014435, "INCLINATION": 0.066, "RA_OF_ASC_NODE": 89.4077, "ARG_OF_PERICENTER": 179.492, "MEAN_ANOMALY": 181.6028, "EPHEMERIS_TYPE": 0, "CLASSIFICATION_TYPE": "U", "NORAD_CAT_ID": 41752, "ELEMENT_SET_NO": 999, "REV_AT_EPOCH": 3385, "BSTAR": 0, "MEAN_MOTION_DOT": -5.7e-07, "MEAN_MOTION_DDOT": 0}, "tle": {"line1": "1 41752U 16054A   25336.84589772 -.00000057  00000+0  00000+0 0  9995", "line2": "2 41752   0.0660  89.4077 0014435 179.4920 181.6028  1.00269587 33850"}}, "geometry": {"type": "Point", "coordinates": [-108.98331483500277, -0.01035022541988856]}}]}